O3B MPOWER F1           
1 54755U 22174A   24225.71637913 -.00000016  00000+0  00000+0 0  9990
2 54755   0.0582 347.0589 0006726 150.1716 232.7082  5.00113918 31669
